[ {"OBJECT_NAME": "ISS OBJECT XU", "NORAD_CAT_ID": 66908, "MEAN_MOTION": 15.7025379, "ECCENTRICITY": 0.0004849, "INCLINATION": 51.6251, "RA_OF_ASC_NODE": 52.8423, "ARG_OF_PERICENTER": 95.5022, "MEAN_ANOMALY": 264.6529, "BSTAR": 0.0013761000000000001, "EPOCH": "2026-03-12T04:35:10"}, {"OBJECT_NAME": "ISS (UNITY)", "NORAD_CAT_ID": 25575, "MEAN_MOTION": 15.48614629, "ECCENTRICITY": 0.0007923, "INCLINATION": 51.6324, "RA_OF_ASC_NODE": 56.6367, "ARG_OF_PERICENTER": 186.141, "MEAN_ANOMALY": 173.9482, "BSTAR": 0.00021655, "EPOCH": "2026-03-12T20:51:23"}, {"OBJECT_NAME": "OUTPOST MISSION 2", "NORAD_CAT_ID": 58334, "MEAN_MOTION": 15.50973738, "ECCENTRICITY": 0.000699, "INCLINATION": 97.3967, "RA_OF_ASC_NODE": 161.7887, "ARG_OF_PERICENTER": 113.9372, "MEAN_ANOMALY": 246.2613, "BSTAR": 0.00064764, "EPOCH": "2026-03-12T23:38:50"}, {"OBJECT_NAME": "ISS OBJECT YE", "NORAD_CAT_ID": 67688, "MEAN_MOTION": 15.52834307, "ECCENTRICITY": 0.0007968, "INCLINATION": 51.6314, "RA_OF_ASC_NODE": 55.6037, "ARG_OF_PERICENTER": 162.5532, "MEAN_ANOMALY": 197.5733, "BSTAR": 0.00084072, "EPOCH": "2026-03-12T22:31:08"}, {"OBJECT_NAME": "ISS (ZVEZDA)", "NORAD_CAT_ID": 26400, "MEAN_MOTION": 15.48614629, "ECCENTRICITY": 0.0007923, "INCLINATION": 51.6324, "RA_OF_ASC_NODE": 56.6367, "ARG_OF_PERICENTER": 186.141, "MEAN_ANOMALY": 173.9482, "BSTAR": 0.00021655, "EPOCH": "2026-03-12T20:51:23"}, {"OBJECT_NAME": "ISS OBJECT XT", "NORAD_CAT_ID": 66907, "MEAN_MOTION": 15.70168045, "ECCENTRICITY": 0.0004715, "INCLINATION": 51.6249, "RA_OF_ASC_NODE": 52.2093, "ARG_OF_PERICENTER": 95.5605, "MEAN_ANOMALY": 264.593, "BSTAR": 0.0014377, "EPOCH": "2026-03-12T07:41:21"}, {"OBJECT_NAME": "ISS (DESTINY)", "NORAD_CAT_ID": 26700, "MEAN_MOTION": 15.48614629, "ECCENTRICITY": 0.0007923, "INCLINATION": 51.6324, "RA_OF_ASC_NODE": 56.6367, "ARG_OF_PERICENTER": 186.141, "MEAN_ANOMALY": 173.9482, "BSTAR": 0.00021655, "EPOCH": "2026-03-12T20:51:23"}, {"OBJECT_NAME": "ISS OBJECT XW", "NORAD_CAT_ID": 66910, "MEAN_MOTION": 15.69619162, "ECCENTRICITY": 0.0005325, "INCLINATION": 51.6244, "RA_OF_ASC_NODE": 48.9273, "ARG_OF_PERICENTER": 105.661, "MEAN_ANOMALY": 254.4975, "BSTAR": 0.0012885, "EPOCH": "2026-03-12T22:52:31"}, {"OBJECT_NAME": "ISS OBJECT XX", "NORAD_CAT_ID": 66911, "MEAN_MOTION": 15.76985712, "ECCENTRICITY": 0.0006975, "INCLINATION": 51.6223, "RA_OF_ASC_NODE": 49.6058, "ARG_OF_PERICENTER": 102.6102, "MEAN_ANOMALY": 257.5678, "BSTAR": 0.001714, "EPOCH": "2026-03-12T11:54:35"}, {"OBJECT_NAME": "ISS OBJECT XY", "NORAD_CAT_ID": 66912, "MEAN_MOTION": 15.64357529, "ECCENTRICITY": 0.0003327, "INCLINATION": 51.6271, "RA_OF_ASC_NODE": 50.5463, "ARG_OF_PERICENTER": 107.6228, "MEAN_ANOMALY": 252.5131, "BSTAR": 0.0010318, "EPOCH": "2026-03-12T23:14:01"}, {"OBJECT_NAME": "ISS OBJECT YC", "NORAD_CAT_ID": 67686, "MEAN_MOTION": 15.53033071, "ECCENTRICITY": 0.000812, "INCLINATION": 51.6318, "RA_OF_ASC_NODE": 59.1061, "ARG_OF_PERICENTER": 159.6101, "MEAN_ANOMALY": 200.5215, "BSTAR": 0.00089399, "EPOCH": "2026-03-12T05:27:31"}]